[
    {
        "Altitude(m)": 612502.2311485338,
        "Argument of Periapsis(deg)": 0.0,
        "Eccentricity": 0.0,
        "Inclination(deg)": 60.0,
        "Latitude(deg)": -28.13609137440149,
        "Longitude(deg)": -152.8518051374032,
        "Mean Anomaly(deg)": -32.72730000000001,
        "RAAN(deg)": 325.0,
        "Satellite Name": "Test1 1450",
        "Satellite Number": 1450,
        "Semi-Major Axis(m)": 6980739.136638005,
        "Time(s)": 0
    },
    {
        "Altitude(m)": 612308.6787865824,
        "Argument of Periapsis(deg)": 0.00010418945913296404,
        "Eccentricity": 0.0,
        "Inclination(deg)": 60.0,
        "Latitude(deg)": -27.623147322898156,
        "Longitude(deg)": -152.49832944084235,
        "Mean Anomaly(deg)": -32.10719385453816,
        "RAAN(deg)": 324.99957995086027,
        "Satellite Name": "Test1 1450",
        "Satellite Number": 1450,
        "Semi-Major Axis(m)": 6980739.136638005,
        "Time(s)": 10
    }
]